NOAA 2 (ITOS-D)
1 06235U 72082A   25248.93198333 -.00000016  00000-0  19285-3 0  9991
2 06235 102.0236 259.2284 0004097 357.9250  61.4234 12.53204157419346
SOLRAD-7B
1 01291U 65016D   25248.94160232  .00000064  00000-0  86008-4 0  9995
2 01291  70.0784 120.5588 0019103 139.6431 220.6097 13.94924918 77067
OSCAR-7 (AO-7)
1 07530U 74089B   25248.76793968 -.00000014  00000-0  20463-3 0  9993
2 07530 101.9976 253.9809 0012014 315.4159 218.0704 12.53691379324874
UOSAT-2 (UO-11)
1 14781U 84021B   25248.87323412  .00002254  00000-0  24146-3 0  9990
2 14781  97.7633 213.5476 0009072  52.2450 307.9588 14.89638110214785
FLTSATCOM-7 (USA-20)
1 17181U 86096A   25247.42202028 -.00000004  00000-0  00000-0 0  9992
2 17181  12.9336 341.8751 0039655 320.2137  46.4715  0.98928336149143
FLTSATCOM-8 (USA-46)
1 20253U 89077A   25248.68918831 -.00000362  00000-0  00000-0 0  9990
2 20253  12.5013 352.8581 0003863 201.7414 164.0751  1.00281016257712
OSCAR 16 (PACSAT)
1 20439U 90005D   25248.95942024  .00000250  00000-0  10666-3 0  9997
2 20439  98.8864 272.4934 0010361 351.3664  81.0377 14.33804554861203
LUSAT (LO-19)
1 20442U 90005G   25248.93258221  .00000256  00000-0  10863-3 0  9993
2 20442  98.9006 257.6900 0010929 324.2275  35.8175 14.33986247861653
UFO 2 (USA 95)
1 22787U 93056A   25248.02739126  .00000129  00000-0  00000-0 0  9992
2 22787  11.7966   5.0741 0003055 220.2097 157.6336  1.00269905115695
EYESAT-1 (AO-27)
1 22825U 93061C   25248.88922256  .00000193  00000-0  90903-4 0  9999
2 22825  98.7291 310.8530 0007883 207.5154 152.5612 14.30825666666345
ITAMSAT (IO-26) 
1 22826U 93061D   25248.88249529  .00000223  00000-0  10154-3 0  9998
2 22826  98.7240 310.7370 0008693 191.4337 168.6649 14.31241694666640
UFO 3 (USA 104)
1 23132U 94035A   25248.09360487 -.00000015  00000-0  00000-0 0  9997
2 23132  12.2397   7.3932 0004491 212.3123 159.9904  1.00245728128842
RADIO ROSTO (RS-15)
1 23439U 94085A   25248.86726444 -.00000051  00000-0 -24930-3 0  9998
2 23439  64.8182  43.0269 0147281  57.4132 304.0915 11.27581869263844
UFO 4 (USA 108)
1 23467U 95003A   25248.62704803 -.00000019  00000-0  00000-0 0  9991
2 23467   9.6718  14.1322 0003916 155.0965 213.7900  1.00270938112105
UFO 7 (USA 127)
1 23967U 96042A   25248.16022229 -.00000184  00000-0  00000-0 0  9997
2 23967  10.8412  18.5583 0007252 127.4799 233.7083  1.00277041106634
JAS-2 (FO-29)
1 24278U 96046B   25248.95816964  .00000017  00000-0  49755-4 0  9999
2 24278  98.5606 131.1703 0350802 113.5280 250.3125 13.53253072434722
UFO 8 (USA 138)
1 25258U 98016A   25248.76060612 -.00000356  00000-0  00000-0 0  9990
2 25258  10.7833  24.4077 0004602 227.3577 132.7361  1.00347051101001
TECHSAT-1B (GO-32)
1 25397U 98043D   25248.92353591  .00000157  00000-0  88026-4 0  9999
2 25397  98.9798 229.9235 0000999   7.9379 352.1814 14.24336244410868
ISS (ZARYA)
1 25544U 98067A   25249.10036160  .00011007  00000-0  19959-3 0  9994
2 25544  51.6328 266.0304 0004206 306.2907  53.7693 15.50135950527716
UFO 10 (USA 146)
1 25967U 99063A   25248.73104850 -.00000185  00000-0  00000-0 0  9990
2 25967   9.7636  28.6441 0004316 180.1389  16.5428  1.00273815 94490
PCSAT (NO-44)
1 26931U 01043C   25248.73333245  .00000296  00000-0  14177-3 0  9990
2 26931  67.0489 259.9103 0007000 275.6456  84.3847 14.31773337249725
PROBA-1
1 26958U 01049B   25248.96230934  .00003783  00000-0  25713-3 0  9993
2 26958  97.9543 242.9908 0056997   5.0253 355.1533 15.05687762300829
SAUDISAT-1C (SO-50)
1 27607U 02058C   25248.83242423  .00001955  00000-0  25614-3 0  9997
2 27607  64.5532 288.0708 0065498 315.3971  44.1874 14.81854349222307
CUTE-1 (CO-55)
1 27844U 03031E   25248.93038864  .00000548  00000-0  25728-3 0  9998
2 27844  98.6789 256.0753 0008512 294.5192  65.5099 14.24060474151216
CUBESAT XI-IV (CO-57)
1 27848U 03031J   25248.77972960  .00000461  00000-0  22258-3 0  9997
2 27848  98.6816 255.8649 0008630 314.3588  45.6883 14.23385947150913
MOZHAYETS-4 (RS-22)
1 27939U 03042A   25248.96344369  .00002006  00000-0  32345-3 0  9992
2 27939  98.3361  60.6023 0012589  89.9318  75.2879 14.72560355173706
UFO 11 (USA 174)
1 28117U 03057A   25248.89345010 -.00000103  00000-0  00000-0 0  9990
2 28117   8.6534  35.1148 0003648 151.5815 195.8303  1.00271893 79596
CUBESAT XI-V (CO-58)
1 28895U 05043F   25248.93787532  .00002703  00000-0  44513-3 0  9991
2 28895  98.2614  34.4658 0014951  31.2656 328.9436 14.71307847 59930
CAPE-1
1 31130U 07012P   25248.84891454  .00002026  00000-0  38019-3 0  9996
2 31130  98.4057 211.5949 0083875 238.0745 121.2279 14.63674297976739
CUTE-1.7+APD II (CO-65)
1 32785U 08021C   25248.91084637  .00007699  00000-0  54207-3 0  9997
2 32785  97.7939 220.8164 0007190 273.8242  86.2162 15.05305232942364
SEEDS-II (CO-66)
1 32791U 08021J   25248.93857904  .00018570  00000-0  84345-3 0  9997
2 32791  97.7346 231.1075 0003103 175.5547 184.5716 15.20827119943914
YUBILEINY (RS-30)
1 32953U 08025A   25248.92884325  .00000016  00000-0  42589-4 0  9998
2 32953  82.5071 172.2459 0018207 210.5294 149.4728 12.43167948784377
KKS-1 (KISEKI)
1 33499U 09002H   25248.85170736  .00002494  00000-0  32194-3 0  9998
2 33499  98.1128 162.1003 0009281 125.1983 235.0099 14.81881993894068
SWISSCUBE
1 35932U 09051B   25248.61041681  .00002035  00000-0  41974-3 0  9993
2 35932  98.4180 146.4554 0007641  28.0358 332.1253 14.61533567847578
BEESAT
1 35933U 09051C   25248.68935359  .00001768  00000-0  37093-3 0  9994
2 35933  98.4112 146.7313 0006292  41.5684 318.5994 14.60917679847639
ITUPSAT-1
1 35935U 09051E   25248.64201465  .00001620  00000-0  34981-3 0  9996
2 35935  98.4203 146.1499 0008665  47.3199 312.8729 14.59702218847218
PROBA-2
1 36037U 09059B   25248.76207711  .00000451  00000-0  11605-3 0  9990
2 36037  98.2407  71.1717 0014448  80.1063 280.1764 14.54605129840179
XIWANG-1 (HOPE-1)
1 36122U 09072B   25248.85409806 -.00000031  00000-0  35338-4 0  9994
2 36122 100.3571 202.7947 0007610 158.6351 201.5081 13.16427718755595
EWS-G2 (GOES-15)
1 36411U 10008A   25248.89059009  .00000036  00000-0  00000-0 0  9994
2 36411   0.5509  85.4545 0004583 130.8957 150.9459  1.00267659 56785
TISAT-1
1 36799U 10035E   25248.75058616  .00019195  00000-0  92668-3 0  9991
2 36799  98.0522 168.3901 0004751 130.4356 229.7291 15.18708465824347
HORYU-2
1 38340U 12025D   25248.87294489  .00005912  00000-0  64600-3 0  9996
2 38340  98.1866   6.3511 0009113  37.8582 322.3273 14.88238534706394
AAUSAT-3
1 39087U 13009B   25248.78745037  .00001265  00000-0  42047-3 0  9996
2 39087  98.3683  74.1975 0011432 352.3996   7.7017 14.39358155656257
STRAND-1
1 39090U 13009E   25248.76626302  .00000580  00000-0  21066-3 0  9998
2 39090  98.3853  71.1652 0008858   9.0951 351.0395 14.36880978656214
CUBEBUG-1 (CAPITAN BETO)
1 39153U 13018D   25248.90843003  .00004889  00000-0  45937-3 0  9992
2 39153  98.1310  32.3789 0012598  12.5303 347.6227 14.94369344668565
PROBA-V
1 39159U 13021A   25248.95020163  .00000160  00000-0  88244-4 0  9998
2 39159  98.3288 237.1062 0003084 236.7677 123.3207 14.23510138640670
ZACUBE-1 (TSHEPISOSAT)
1 39417U 13066B   25248.81722227  .00007386  00000-0  62688-3 0  9999
2 39417  97.7860 205.4387 0045248 116.4394 244.1481 14.97406356638111
TRITON-1
1 39427U 13066M   25249.01514264  .00004462  00000-0  55927-3 0  9993
2 39427  97.8295 160.5432 0095446  79.5193 281.6756 14.79496810632038
DELFI-N3XT
1 39428U 13066N   25248.73803960  .00010853  00000-0  10716-2 0  9993
2 39428  97.8294 165.4358 0085087  70.4856 290.5527 14.89412875632197
GOMX-1
1 39430U 13066Q   25248.83524190  .00002937  00000-0  45922-3 0  9994
2 39430  97.6738 102.0621 0130272 269.9666  88.6613 14.67962901628173
HUMSAT-D
1 39433U 13066T   25248.92642565  .00050105  00000-0  12001-2 0  9995
2 39433  97.5048 246.7529 0012195 145.0831 215.1218 15.41195580642654
VELOX-PII
1 39438U 13066Y   25248.80290777  .00005022  00000-0  50584-3 0  9998
2 39438  97.8349 195.9955 0054941 202.4083 157.4735 14.90485773635435
CUBEBUG-2 (LO-74)
1 39440U 13066AA  25248.83923635  .00005309  00000-0  53023-3 0  9999
2 39440  97.8533 192.8432 0059626 248.1767 111.3101 14.90601165634586
FUNCUBE-1 (AO-73)
1 39444U 13066AE  25248.83522181  .00010867  00000-0  78554-3 0  9995
2 39444  97.7905 211.1822 0043280  88.9208 271.6975 15.03466635636845
UWE-3
1 39446U 13066AG  25248.85649163  .00005027  00000-0  46928-3 0  9991
2 39446  97.8290 199.3566 0052341 184.2851 175.7928 14.93597394635081
UNISAT-6
1 40012U 14033C   25248.92483040  .00004490  00000-0  51366-3 0  9990
2 40012  97.7528  42.7341 0046081 284.9587  74.6530 14.85726749603917
DUCHIFAT-1
1 40021U 14033M   25248.60844282  .00031198  00000-0  99908-3 0  9993
2 40021  98.0932 270.8159 0007836  27.4542 332.7111 15.32305581611784
FUNCUBE-3 (EO-79)
1 40025U 14033R   25248.94500222  .00010862  00000-0  63852-3 0  9991
2 40025  98.0896 236.5631 0012281 112.6490 247.6039 15.11813528609984
SMAP
1 40376U 15003A   25248.90866942  .00000901  00000-0  18327-3 0  9998
2 40376  98.1309 255.0113 0001489  86.5649 273.5723 14.63407895566046
LILACSAT-2
1 40908U 15049K   25248.98868112  .00016339  00000-0  39862-3 0  9997
2 40908  97.5034 271.5741 0008604 189.1028 171.0064 15.40917489551834
LAPAN-A2 (IO-86)
1 40931U 15052B   25151.18580175  .00001241  00000-0  78118-4 0  9996
2 40931   6.0006  24.0987 0012733 338.8432  21.1169 14.78805930523159
LQSAT
1 40958U 15057A   25248.98713389  .00001163  00000-0  17464-3 0  9999
2 40958  97.6592 251.7765 0018690 113.1195 247.1988 14.76199367533377
PRATHAM
1 41783U 16059A   25248.93940376  .00001503  00000-0  27710-3 0  9995
2 41783  97.8269 253.5625 0032691  45.8004 314.5878 14.66555850477847
ALSAT-1N
1 41789U 16059G   25249.00413667  .00001770  00000-0  31150-3 0  9997
2 41789  97.8060 260.1519 0026730  19.8577 340.3663 14.68541607478286
CAS-2T & KS-1Q
1 41847U 16066G   25248.84571912  .00001321  00000-0  19788-3 0  9994
2 41847  98.4141 322.5251 0344163 271.4350  84.7448 14.43693437463750
